STARLINK-2416_new
1 17829C 21018AU  21326.17742818  .00002975  00000-0  19928-3 0  3263
2 17829  53.0541 102.9484 0001325  83.2807 334.2519 15.06398508    10
STARLINK-2416_old
1 27829C 21018AU  21325.08752950  .00001352  00000-0  90574-4 0  3254
2 27829  53.0542 107.8407 0001355  83.4065 180.3023 15.06394457    10
